{"type": "FeatureCollection", "features": [{"type": "Feature", "properties": {"id": "reach_ccabf1fe88", "river": "rio_taquari", "order": 0, "score": 0.4446, "band": "Alta", "components": {"severity": 0.0899, "no_regen": 0.5008, "connectivity": 0.5758, "risk": 0.8425, "cost": 0.9281}, "delta_regen": 0.1684, "valid_fraction": 0.7745, "area_ha": 20.0, "stats_pre": {"n_cenas": 3, "frac_validos": 0.7967171717171717, "ndvi_min": -0.17223650385604114, "ndvi_max": 0.7059415911379657, "ndvi_mean": 0.5578994297785203, "frac_critico": 0.03571428571428571, "frac_moderado": 0.10515873015873016}, "stats_pos": {"n_cenas": 2, "frac_validos": 0.5001803751803752, "ndvi_min": -0.163922942206655, "ndvi_max": 0.6360416519090458, "ndvi_mean": 0.2205179125023145, "frac_critico": 0.31655844155844154, "frac_moderado": 0.15683621933621933}, "stats_regen": {"n_cenas": 3, "frac_validos": 0.7745310245310245, "ndvi_min": -0.20597014925373136, "ndvi_max": 0.6956001912960307, "ndvi_mean": 0.3889346949985395, "frac_critico": 0.08991702741702742, "frac_moderado": 0.43804112554112556}, "methods_version": "f1-2026-09"}, "geometry": {"type": "LineString", "coordinates": [[-51.90799750000001, -29.3525497], [-51.9050379, -29.354163499999995], [-51.903629242388206, -29.354940437838703]]}}, {"type": "Feature", "properties": {"id": "reach_baeab33dbb", "river": "rio_taquari", "order": 1, "score": 0.4565, "band": "Alta", "components": {"severity": 0.0956, "no_regen": 0.4167, "connectivity": 0.6133, "risk": 1.0, "cost": 0.9235}, "delta_regen": 0.2085, "valid_fraction": 0.7926, "area_ha": 20.0, "stats_pre": {"n_cenas": 3, "frac_validos": 0.7904040404040404, "ndvi_min": -0.17223650385604114, "ndvi_max": 0.705729488924638, "ndvi_mean": 0.5731534677258997, "frac_critico": 0.027326839826839828, "frac_moderado": 0.0992965367965368}, "stats_pos": {"n_cenas": 2, "frac_validos": 0.5414862914862915, "ndvi_min": -0.163922942206655, "ndvi_max": 0.6107960988886367, "ndvi_mean": 0.21565408568937408, "frac_critico": 0.362463924963925, "frac_moderado": 0.13636363636363635}, "stats_regen": {"n_cenas": 3, "frac_validos": 0.7925685425685426, "ndvi_min": -0.20597014925373136, "ndvi_max": 0.6889758962437293, "ndvi_mean": 0.42418858718013397, "frac_critico": 0.0955988455988456, "frac_moderado": 0.3124098124098124}, "methods_version": "f1-2026-09"}, "geometry": {"type": "LineString", "coordinates": [[-51.903629242388206, -29.354940437838703], [-51.9005808, -29.3566217], [-51.8997391, -29.357073999999994], [-51.89931727318776, -29.35739810696878]]}}, {"type": "Feature", "properties": {"id": "reach_7b419318a2", "river": "rio_taquari", "order": 2, "score": 0.4879, "band": "Alta", "components": {"severity": 0.1114, "no_regen": 0.5363, "connectivity": 0.5963, "risk": 1.0, "cost": 0.9109}, "delta_regen": 0.1793, "valid_fraction": 0.8085, "area_ha": 20.0, "stats_pre": {"n_cenas": 3, "frac_validos": 0.7929739876642532, "ndvi_min": -0.16125481563015956, "ndvi_max": 0.7086792452830188, "ndvi_mean": 0.5918765447650599, "frac_critico": 0.01796728345400912, "frac_moderado": 0.07419326003396799}, "stats_pos": {"n_cenas": 2, "frac_validos": 0.5578796817734871, "ndvi_min": -0.16065573770491806, "ndvi_max": 0.637960049754884, "ndvi_mean": 0.20526027545431283, "frac_critico": 0.3940287834093144, "frac_moderado": 0.11906677393403058}, "stats_regen": {"n_cenas": 3, "frac_validos": 0.8085277554304103, "ndvi_min": -0.20597014925373136, "ndvi_max": 0.6898669396110543, "ndvi_mean": 0.38451668693105845, "frac_critico": 0.11137927952087244, "frac_moderado": 0.45803164387235185}, "methods_version": "f1-2026-09"}, "geometry": {"type": "LineString", "coordinates": [[-51.89931727318776, -29.35739810696878], [-51.8957394, -29.360147], [-51.89544477456016, -29.360373428741696]]}}, {"type": "Feature", "properties": {"id": "reach_3a4dd0a219", "river": "rio_taquari", "order": 3, "score": 0.4585, "band": "Alta", "components": {"severity": 0.0889, "no_regen": 0.4875, "connectivity": 0.593, "risk": 0.9361, "cost": 0.9289}, "delta_regen": 0.1885, "valid_fraction": 0.812, "area_ha": 20.0, "stats_pre": {"n_cenas": 3, "frac_validos": 0.7996031746031746, "ndvi_min": -0.16001238006809046, "ndvi_max": 0.6988535031847134, "ndvi_mean": 0.5624991286036299, "frac_critico": 0.034000721500721504, "frac_moderado": 0.11129148629148629}, "stats_pos": {"n_cenas": 2, "frac_validos": 0.487012987012987, "ndvi_min": -0.16065573770491806, "ndvi_max": 0.6058851150414775, "ndvi_mean": 0.1946830353814239, "frac_critico": 0.34604978354978355, "frac_moderado": 0.10786435786435787}, "stats_regen": {"n_cenas": 3, "frac_validos": 0.812049062049062, "ndvi_min": -0.1927669737291027, "ndvi_max": 0.6797256298641341, "ndvi_mean": 0.3831922820492368, "frac_critico": 0.08892496392496392, "frac_moderado": 0.4989177489177489}, "methods_version": "f1-2026-09"}, "geometry": {"type": "LineString", "coordinates": [[-51.89544477456016, -29.360373428741696], [-51.8947056, -29.360941500000006], [-51.8917839, -29.362917999999986], [-51.8914305259262, -29.36319766990288]]}}, {"type": "Feature", "properties": {"id": "reach_1b14902269", "river": "rio_taquari", "order": 4, "score": 0.412, "band": "Alta", "components": {"severity": 0.0984, "no_regen": 0.3642, "connectivity": 0.616, "risk": 0.7816, "cost": 0.9213}, "delta_regen": 0.2237, "valid_fraction": 0.8126, "area_ha": 20.0, "stats_pre": {"n_cenas": 3, "frac_validos": 0.7990789236048401, "ndvi_min": -0.16001238006809046, "ndvi_max": 0.6988535031847134, "ndvi_mean": 0.5575896993672711, "frac_critico": 0.025555354885316958, "frac_moderado": 0.13427849015712479}, "stats_pos": {"n_cenas": 2, "frac_validos": 0.4441936066461983, "ndvi_min": -0.19001634229683556, "ndvi_max": 0.5994815294880104, "ndvi_mean": 0.20569945121463318, "frac_critico": 0.28607549214376016, "frac_moderado": 0.1213653603034134}, "stats_regen": {"n_cenas": 3, "frac_validos": 0.8126241647101319, "ndvi_min": -0.1927669737291027, "ndvi_max": 0.7033800873764083, "ndvi_mean": 0.4294405558446703, "frac_critico": 0.09842875203178617, "frac_moderado": 0.3506411414123171}, "methods_version": "f1-2026-09"}, "geometry": {"type": "LineString", "coordinates": [[-51.8914305259262, -29.36319766990288], [-51.8888112, -29.365270600000006], [-51.887841629750945, -29.366408768874535]]}}, {"type": "Feature", "properties": {"id": "reach_1b60e6f8bf", "river": "rio_taquari", "order": 15, "score": 0.3936, "band": "Média", "components": {"severity": 0.057, "no_regen": 0.5073, "connectivity": 0.5706, "risk": 0.5601, "cost": 0.9731}, "delta_regen": 0.1213, "valid_fraction": 0.7587, "area_ha": 11.81, "stats_pre": {"n_cenas": 3, "frac_validos": 0.775523088023088, "ndvi_min": -0.1593220338983051, "ndvi_max": 0.7004448838358873, "ndvi_mean": 0.5096177675969888, "frac_critico": 0.04933261183261183, "frac_moderado": 0.21978715728715728}, "stats_pos": {"n_cenas": 2, "frac_validos": 0.5179473304473304, "ndvi_min": -0.163922942206655, "ndvi_max": 0.6237305472346021, "ndvi_mean": 0.26342187150804564, "frac_critico": 0.23602092352092352, "frac_moderado": 0.2526154401154401}, "stats_regen": {"n_cenas": 3, "frac_validos": 0.7587481962481962, "ndvi_min": -0.1976543635736461, "ndvi_max": 0.7078724089786275, "ndvi_mean": 0.3847203682274359, "frac_critico": 0.056998556998557, "frac_moderado": 0.5296717171717171}, "methods_version": "f1-2026-09"}, "geometry": {"type": "LineString", "coordinates": [[-51.91088794047617, -29.350741028384178], [-51.9106364, -29.351039000000004], [-51.9085999, -29.352480300000003]]}}]}
