{"type": "FeatureCollection", "features": [{"type": "Feature", "properties": {"id": "reach_65b55ce315", "river": "rio_taquari", "order": 0, "score": 0.438, "band": "Alta", "components": {"severity": 0.1455, "no_regen": 0.442, "connectivity": 0.8041, "risk": 0.4771, "cost": 0.8836}, "delta_regen": 0.0859, "valid_fraction": 0.7549, "area_ha": 20.0, "stats_pre": {"n_cenas": 3, "frac_validos": 0.7842138196120497, "ndvi_min": -0.19227114349065572, "ndvi_max": 0.680892974392646, "ndvi_mean": 0.43406639482453974, "frac_critico": 0.13059801555376777, "frac_moderado": 0.27424689371592026}, "stats_pos": {"n_cenas": 3, "frac_validos": 0.8040582819343881, "ndvi_min": -0.2171678231817014, "ndvi_max": 0.66239159643337, "ndvi_mean": 0.2800770823091366, "frac_critico": 0.28962188254223653, "frac_moderado": 0.43800840261017254}, "stats_regen": {"n_cenas": 3, "frac_validos": 0.7548940734781443, "ndvi_min": -0.18241536129358263, "ndvi_max": 0.7336831748114135, "ndvi_mean": 0.3660003235617864, "frac_critico": 0.1455260570304818, "frac_moderado": 0.4045767408599267}, "methods_version": "f1-2026-09"}, "geometry": {"type": "LineString", "coordinates": [[-51.9392262, -29.617273699999995], [-51.9393897, -29.61772819999999], [-51.9395506, -29.618567600000002], [-51.9395453, -29.619351099999996], [-51.9395828, -29.6202278], [-51.9397116, -29.621155799999997], [-51.94000074404581, -29.621687827979247]]}}, {"type": "Feature", "properties": {"id": "reach_4d7d157cb1", "river": "rio_taquari", "order": 0, "score": 0.564, "band": "Alta", "components": {"severity": 0.406, "no_regen": 0.6471, "connectivity": 0.6431, "risk": 0.6516, "cost": 0.6752}, "delta_regen": 0.0451, "valid_fraction": 0.6453, "area_ha": 20.0, "stats_pre": {"n_cenas": 3, "frac_validos": 0.6783766872262448, "ndvi_min": -0.2228108444998442, "ndvi_max": 0.6727563675156687, "ndvi_mean": 0.2785975287499813, "frac_critico": 0.2697774202198981, "frac_moderado": 0.2936444086886565}, "stats_pos": {"n_cenas": 3, "frac_validos": 0.6470903727540895, "ndvi_min": -0.150070126227209, "ndvi_max": 0.6333286179091809, "ndvi_mean": 0.1508446219004015, "frac_critico": 0.4869938321265755, "frac_moderado": 0.15696790918029857}, "stats_regen": {"n_cenas": 3, "frac_validos": 0.6453025833556807, "ndvi_min": -0.18177163338453664, "ndvi_max": 0.6679213718109578, "ndvi_mean": 0.1959296537979901, "frac_critico": 0.4060069723786538, "frac_moderado": 0.20514883346741755}, "methods_version": "f1-2026-09"}, "geometry": {"type": "LineString", "coordinates": [[-51.9695829, -29.497785399999994], [-51.9696892, -29.498467900000005], [-51.9706241, -29.500524899999995], [-51.97173714159732, -29.501806759179136]]}}, {"type": "Feature", "properties": {"id": "reach_095469faca", "river": "rio_taquari", "order": 0, "score": 0.4905, "band": "Alta", "components": {"severity": 0.138, "no_regen": 0.6914, "connectivity": 0.687, "risk": 0.5828, "cost": 0.8896}, "delta_regen": 0.0695, "valid_fraction": 0.8027, "area_ha": 20.0, "stats_pre": {"n_cenas": 3, "frac_validos": 0.8037518037518038, "ndvi_min": -0.17412935323383083, "ndvi_max": 0.7001699124297477, "ndvi_mean": 0.5035713604262978, "frac_critico": 0.05077561327561327, "frac_moderado": 0.2371031746031746}, "stats_pos": {"n_cenas": 2, "frac_validos": 0.5858585858585859, "ndvi_min": -0.1790731471015663, "ndvi_max": 0.7079334092511251, "ndvi_mean": 0.2782277973235574, "frac_critico": 0.24503968253968253, "frac_moderado": 0.2757936507936508}, "stats_regen": {"n_cenas": 3, "frac_validos": 0.8026695526695526, "ndvi_min": -0.18731988472622482, "ndvi_max": 0.7267932489451477, "ndvi_mean": 0.3477609925166846, "frac_critico": 0.137987012987013, "frac_moderado": 0.5185786435786436}, "methods_version": "f1-2026-09"}, "geometry": {"type": "LineString", "coordinates": [[-51.8957155, -29.284028300000003], [-51.8982027, -29.286985399999995], [-51.8986864, -29.287560400000004], [-51.898752253523135, -29.28766998146429]]}}, {"type": "Feature", "properties": {"id": "reach_afba726dbf", "river": "rio_taquari", "order": 1, "score": 0.3889, "band": "Média", "components": {"severity": 0.0751, "no_regen": 0.2865, "connectivity": 0.6153, "risk": 0.8064, "cost": 0.9399}, "delta_regen": 0.168, "valid_fraction": 0.7583, "area_ha": 20.0, "stats_pre": {"n_cenas": 3, "frac_validos": 0.755251631357826, "ndvi_min": -0.19576018549188473, "ndvi_max": 0.6876140808344198, "ndvi_mean": 0.4976143566961022, "frac_critico": 0.03164387235183695, "frac_moderado": 0.2481451684991508}, "stats_pos": {"n_cenas": 3, "frac_validos": 0.7638330204701886, "ndvi_min": -0.14030819140308196, "ndvi_max": 0.6672685065772505, "ndvi_mean": 0.26217865245208305, "frac_critico": 0.30043800840261015, "frac_moderado": 0.43416465540359345}, "stats_regen": {"n_cenas": 3, "frac_validos": 0.7582908733351211, "ndvi_min": -0.16365657126979719, "ndvi_max": 0.6907988127500322, "ndvi_mean": 0.43015332896386366, "frac_critico": 0.07508715473317243, "frac_moderado": 0.3939393939393939}, "methods_version": "f1-2026-09"}, "geometry": {"type": "LineString", "coordinates": [[-51.97679632368122, -29.523544231360596], [-51.9760261, -29.5254991], [-51.975413019943424, -29.527884026179667]]}}, {"type": "Feature", "properties": {"id": "reach_89bbd94cf6", "river": "rio_taquari", "order": 1, "score": 0.3825, "band": "Média", "components": {"severity": 0.0923, "no_regen": 0.2863, "connectivity": 0.6126, "risk": 0.7194, "cost": 0.9646}, "delta_regen": 0.1428, "valid_fraction": 0.7668, "area_ha": 9.58, "stats_pre": {"n_cenas": 3, "frac_validos": 0.8008658008658008, "ndvi_min": -0.17288557213930342, "ndvi_max": 0.6989413891040537, "ndvi_mean": 0.478925677845964, "frac_critico": 0.05844155844155844, "frac_moderado": 0.268488455988456}, "stats_pos": {"n_cenas": 3, "frac_validos": 0.8023088023088023, "ndvi_min": -0.14916698953893837, "ndvi_max": 0.6663943355119826, "ndvi_mean": 0.2788547962857391, "frac_critico": 0.29825036075036077, "frac_moderado": 0.42884199134199136}, "stats_regen": {"n_cenas": 3, "frac_validos": 0.7667748917748918, "ndvi_min": -0.19761273209549077, "ndvi_max": 0.6889375684556407, "ndvi_mean": 0.42165394690259234, "frac_critico": 0.09226190476190477, "frac_moderado": 0.3656204906204906}, "methods_version": "f1-2026-09"}, "geometry": {"type": "LineString", "coordinates": [[-51.95290569466795, -29.42525413532158], [-51.950948, -29.426571700000004]]}}, {"type": "Feature", "properties": {"id": "reach_baeab33dbb", "river": "rio_taquari", "order": 1, "score": 0.4041, "band": "Alta", "components": {"severity": 0.1502, "no_regen": 0.3103, "connectivity": 0.6333, "risk": 0.6597, "cost": 0.9662}, "delta_regen": 0.1101, "valid_fraction": 0.7917, "area_ha": 5.63, "stats_pre": {"n_cenas": 3, "frac_validos": 0.8210422812192724, "ndvi_min": -0.16601149077713942, "ndvi_max": 0.6819902650081124, "ndvi_mean": 0.3940906671560555, "frac_critico": 0.14963797264682221, "frac_moderado": 0.35648520604272815}, "stats_pos": {"n_cenas": 3, "frac_validos": 0.8092428711897739, "ndvi_min": -0.1358717434869739, "ndvi_max": 0.6071796380756216, "ndvi_mean": 0.23448162037503228, "frac_critico": 0.3695360686511129, "frac_moderado": 0.41825332975775453}, "stats_regen": {"n_cenas": 3, "frac_validos": 0.7917225350853669, "ndvi_min": -0.16842634489693314, "ndvi_max": 0.7135121831159243, "ndvi_mean": 0.3445582930838483, "frac_critico": 0.15017430946634486, "frac_moderado": 0.4637525699472602}, "methods_version": "f1-2026-09"}, "geometry": {"type": "LineString", "coordinates": [[-51.93716269180123, -29.40558699579765], [-51.937328, -29.4057238], [-51.9382288, -29.406449000000002]]}}, {"type": "Feature", "properties": {"id": "reach_a9f2bd4ecf", "river": "rio_taquari", "order": 2, "score": 0.4309, "band": "Alta", "components": {"severity": 0.2247, "no_regen": 0.307, "connectivity": 0.6351, "risk": 0.6942, "cost": 0.8875}, "delta_regen": 0.11, "valid_fraction": 0.7797, "area_ha": 12.52, "stats_pre": {"n_cenas": 3, "frac_validos": 0.7986516034985423, "ndvi_min": -0.20817843866171007, "ndvi_max": 0.6784356328082565, "ndvi_mean": 0.36054438434119856, "frac_critico": 0.2160167638483965, "frac_moderado": 0.28799198250728864}, "stats_pos": {"n_cenas": 3, "frac_validos": 0.7775145772594753, "ndvi_min": -0.13584158415841582, "ndvi_max": 0.6, "ndvi_mean": 0.20187787829239986, "frac_critico": 0.4474307580174927, "frac_moderado": 0.3022959183673469}, "stats_regen": {"n_cenas": 3, "frac_validos": 0.779701166180758, "ndvi_min": -0.17319988879621906, "ndvi_max": 0.6905960885349572, "ndvi_mean": 0.3118415948075354, "frac_critico": 0.22467201166180759, "frac_moderado": 0.4133564139941691}, "methods_version": "f1-2026-09"}, "geometry": {"type": "LineString", "coordinates": [[-51.96685111841188, -29.47312931140903], [-51.96774130000001, -29.473351399999995], [-51.9696474, -29.474481499999996]]}}, {"type": "Feature", "properties": {"id": "reach_8a74795840", "river": "rio_taquari", "order": 3, "score": 0.3229, "band": "Média", "components": {"severity": 0.0936, "no_regen": 0.2421, "connectivity": 0.6596, "risk": 0.343, "cost": 0.9251}, "delta_regen": 0.1047, "valid_fraction": 0.688, "area_ha": 20.0, "stats_pre": {"n_cenas": 3, "frac_validos": 0.7307589165996246, "ndvi_min": -0.22827496757457852, "ndvi_max": 0.6812834224598932, "ndvi_mean": 0.4187795743148749, "frac_critico": 0.0756234915526951, "frac_moderado": 0.37454187896665775}, "stats_pos": {"n_cenas": 3, "frac_validos": 0.6828461607222669, "ndvi_min": -0.14214151534126485, "ndvi_max": 0.6243770468460772, "ndvi_mean": 0.2806667288723023, "frac_critico": 0.18995262358094217, "frac_moderado": 0.45436667560561367}, "stats_regen": {"n_cenas": 3, "frac_validos": 0.6880307499776527, "ndvi_min": -0.1804110631819335, "ndvi_max": 0.6996660305343512, "ndvi_mean": 0.38533773944159927, "frac_critico": 0.09359077500670421, "frac_moderado": 0.4115491195137213}, "methods_version": "f1-2026-09"}, "geometry": {"type": "LineString", "coordinates": [[-51.98238717371674, -29.554804837554574], [-51.98310120000001, -29.5565025], [-51.98389669458005, -29.559114795405506]]}}, {"type": "Feature", "properties": {"id": "reach_3a4dd0a219", "river": "rio_taquari", "order": 3, "score": 0.4108, "band": "Alta", "components": {"severity": 0.1453, "no_regen": 0.3161, "connectivity": 0.5926, "risk": 0.7715, "cost": 0.9335}, "delta_regen": 0.1497, "valid_fraction": 0.8355, "area_ha": 11.43, "stats_pre": {"n_cenas": 3, "frac_validos": 0.8827210154643783, "ndvi_min": -0.1672131147540984, "ndvi_max": 0.6881906537078951, "ndvi_mean": 0.43806828824755656, "frac_critico": 0.12586037364798427, "frac_moderado": 0.3137570394207562}, "stats_pos": {"n_cenas": 3, "frac_validos": 0.8643067846607669, "ndvi_min": -0.13173417223751477, "ndvi_max": 0.5673243336794739, "ndvi_mean": 0.2192308967269471, "frac_critico": 0.3830338786090998, "frac_moderado": 0.4736748011084294}, "stats_regen": {"n_cenas": 3, "frac_validos": 0.8355233753463842, "ndvi_min": -0.17344553529686765, "ndvi_max": 0.7142231468301764, "ndvi_mean": 0.36890389077355557, "frac_critico": 0.14534727809064094, "frac_moderado": 0.4498972021095915}, "methods_version": "f1-2026-09"}, "geometry": {"type": "LineString", "coordinates": [[-51.93164986473091, -29.39968698416438], [-51.9316775, -29.399695199999996], [-51.9334092, -29.400287], [-51.9343171, -29.4007602]]}}, {"type": "Feature", "properties": {"id": "reach_1b14902269", "river": "rio_taquari", "order": 4, "score": 0.4121, "band": "Alta", "components": {"severity": 0.0984, "no_regen": 0.3642, "connectivity": 0.6164, "risk": 0.7816, "cost": 0.9213}, "delta_regen": 0.2237, "valid_fraction": 0.8126, "area_ha": 20.0, "stats_pre": {"n_cenas": 3, "frac_validos": 0.7990789236048401, "ndvi_min": -0.16001238006809046, "ndvi_max": 0.6988535031847134, "ndvi_mean": 0.5575896993672711, "frac_critico": 0.025555354885316958, "frac_moderado": 0.13427849015712479}, "stats_pos": {"n_cenas": 2, "frac_validos": 0.4441936066461983, "ndvi_min": -0.19001634229683556, "ndvi_max": 0.5994815294880104, "ndvi_mean": 0.20569945121463318, "frac_critico": 0.28607549214376016, "frac_moderado": 0.1213653603034134}, "stats_regen": {"n_cenas": 3, "frac_validos": 0.8126241647101319, "ndvi_min": -0.1927669737291027, "ndvi_max": 0.7033800873764083, "ndvi_mean": 0.4294405558446703, "frac_critico": 0.09842875203178617, "frac_moderado": 0.3506411414123171}, "methods_version": "f1-2026-09"}, "geometry": {"type": "LineString", "coordinates": [[-51.8914305259262, -29.36319766990288], [-51.8888112, -29.365270600000006], [-51.887841629750945, -29.366408768874535]]}}, {"type": "Feature", "properties": {"id": "reach_719cc3707e", "river": "rio_taquari", "order": 5, "score": 0.3823, "band": "Média", "components": {"severity": 0.0618, "no_regen": 0.5761, "connectivity": 0.5849, "risk": 0.3479, "cost": 0.9506}, "delta_regen": 0.0689, "valid_fraction": 0.7896, "area_ha": 20.0, "stats_pre": {"n_cenas": 3, "frac_validos": 0.7971681096681097, "ndvi_min": -0.1652448657187994, "ndvi_max": 0.6906680530283338, "ndvi_mean": 0.4919878127361093, "frac_critico": 0.0349025974025974, "frac_moderado": 0.29662698412698413}, "stats_pos": {"n_cenas": 2, "frac_validos": 0.5924422799422799, "ndvi_min": -0.18749999999999997, "ndvi_max": 0.6390682009542521, "ndvi_mean": 0.32941778239657316, "frac_critico": 0.15088383838383837, "frac_moderado": 0.36967893217893216}, "stats_regen": {"n_cenas": 3, "frac_validos": 0.7895923520923521, "ndvi_min": -0.17043434086868173, "ndvi_max": 0.6386715867158672, "ndvi_mean": 0.39832740382907356, "frac_critico": 0.06177849927849928, "frac_moderado": 0.5378787878787878}, "methods_version": "f1-2026-09"}, "geometry": {"type": "LineString", "coordinates": [[-51.89538647616533, -29.316066294890014], [-51.895769, -29.316523400000005], [-51.8979747, -29.319836499999997], [-51.898054722967906, -29.31992085552398]]}}, {"type": "Feature", "properties": {"id": "reach_93781d046e", "river": "rio_taquari", "order": 6, "score": 0.3472, "band": "Média", "components": {"severity": 0.0682, "no_regen": 0.4752, "connectivity": 0.5959, "risk": 0.2541, "cost": 0.9455}, "delta_regen": 0.0744, "valid_fraction": 0.7129, "area_ha": 20.0, "stats_pre": {"n_cenas": 3, "frac_validos": 0.7195165945165946, "ndvi_min": -0.19951189749847464, "ndvi_max": 0.6957032780462321, "ndvi_mean": 0.4681421555863173, "frac_critico": 0.04238816738816739, "frac_moderado": 0.3077200577200577}, "stats_pos": {"n_cenas": 3, "frac_validos": 0.7198773448773449, "ndvi_min": -0.13135261923377634, "ndvi_max": 0.6357913669064748, "ndvi_mean": 0.32640148938946617, "frac_critico": 0.12707431457431456, "frac_moderado": 0.5359848484848485}, "stats_regen": {"n_cenas": 3, "frac_validos": 0.7129329004329005, "ndvi_min": -0.17246558197747183, "ndvi_max": 0.6946258161727774, "ndvi_mean": 0.4007940327753819, "frac_critico": 0.06818181818181818, "frac_moderado": 0.4457070707070707}, "methods_version": "f1-2026-09"}, "geometry": {"type": "LineString", "coordinates": [[-51.940531655500116, -29.45565953536311], [-51.94332931888178, -29.459449686045367]]}}, {"type": "Feature", "properties": {"id": "reach_5aeae82d8a", "river": "rio_taquari", "order": 7, "score": 0.3386, "band": "Média", "components": {"severity": 0.0548, "no_regen": 0.3396, "connectivity": 0.5776, "risk": 0.4747, "cost": 0.9562}, "delta_regen": 0.1002, "valid_fraction": 0.816, "area_ha": 20.0, "stats_pre": {"n_cenas": 3, "frac_validos": 0.8040582819343881, "ndvi_min": -0.17562724014336917, "ndvi_max": 0.6956115779645192, "ndvi_mean": 0.46139963659609556, "frac_critico": 0.07231608116563869, "frac_moderado": 0.3033878609099848}, "stats_pos": {"n_cenas": 2, "frac_validos": 0.6184857423795477, "ndvi_min": -0.18809412498052047, "ndvi_max": 0.6707955222891966, "ndvi_mean": 0.30961158143267975, "frac_critico": 0.23053544292482345, "frac_moderado": 0.2719227674979887}, "stats_regen": {"n_cenas": 3, "frac_validos": 0.8160364709037276, "ndvi_min": -0.21713441654357452, "ndvi_max": 0.6882985452245415, "ndvi_mean": 0.40985354489377757, "frac_critico": 0.05479574506123179, "frac_moderado": 0.4878877268257799}, "methods_version": "f1-2026-09"}, "geometry": {"type": "LineString", "coordinates": [[-51.92150811234627, -29.442530116345782], [-51.9207437, -29.4455032], [-51.92026887723039, -29.44690780515814]]}}, {"type": "Feature", "properties": {"id": "reach_11c34e67d2", "river": "rio_taquari", "order": 11, "score": 0.3313, "band": "Média", "components": {"severity": 0.0714, "no_regen": 0.2314, "connectivity": 0.608, "risk": 0.5314, "cost": 0.9429}, "delta_regen": 0.1577, "valid_fraction": 0.7906, "area_ha": 20.0, "stats_pre": {"n_cenas": 3, "frac_validos": 0.7864357864357865, "ndvi_min": -0.21054344288968432, "ndvi_max": 0.6930379746835444, "ndvi_mean": 0.49147034288908953, "frac_critico": 0.021915584415584416, "frac_moderado": 0.3161976911976912}, "stats_pos": {"n_cenas": 3, "frac_validos": 0.7902236652236653, "ndvi_min": -0.13436293436293434, "ndvi_max": 0.6371569317382125, "ndvi_mean": 0.2863241332063709, "frac_critico": 0.19904401154401155, "frac_moderado": 0.5647546897546898}, "stats_regen": {"n_cenas": 3, "frac_validos": 0.7905844155844156, "ndvi_min": -0.16091343600637278, "ndvi_max": 0.7073751936137257, "ndvi_mean": 0.44400324293581367, "frac_critico": 0.07142857142857142, "frac_moderado": 0.3913239538239538}, "methods_version": "f1-2026-09"}, "geometry": {"type": "LineString", "coordinates": [[-51.99999749611073, -29.586484338577865], [-51.9997085, -29.589148], [-51.99872019813609, -29.590768626451872]]}}, {"type": "Feature", "properties": {"id": "reach_51c3b51631", "river": "rio_taquari", "order": 12, "score": 0.4679, "band": "Alta", "components": {"severity": 0.0802, "no_regen": 0.5196, "connectivity": 0.5655, "risk": 1.0, "cost": 0.9359}, "delta_regen": 0.1666, "valid_fraction": 0.7987, "area_ha": 20.0, "stats_pre": {"n_cenas": 3, "frac_validos": 0.8217573969786359, "ndvi_min": -0.15243713132567518, "ndvi_max": 0.6980237154150196, "ndvi_mean": 0.5543415393632359, "frac_critico": 0.018771788683293107, "frac_moderado": 0.16626441405202466}, "stats_pos": {"n_cenas": 2, "frac_validos": 0.6099043532671852, "ndvi_min": -0.16352725454242367, "ndvi_max": 0.6263043630506339, "ndvi_mean": 0.20759450888761444, "frac_critico": 0.4081523196567444, "frac_moderado": 0.15240904621435594}, "stats_regen": {"n_cenas": 3, "frac_validos": 0.7986949137391616, "ndvi_min": -0.18894308943089427, "ndvi_max": 0.6514488791689447, "ndvi_mean": 0.37418041132720953, "frac_critico": 0.0801823545186377, "frac_moderado": 0.5484043979619201}, "methods_version": "f1-2026-09"}, "geometry": {"type": "LineString", "coordinates": [[-51.87842827807527, -29.39258658598175], [-51.88046620000001, -29.3932322], [-51.88342329255403, -29.393591762434337]]}}, {"type": "Feature", "properties": {"id": "reach_50d794e27c", "river": "rio_taquari", "order": 13, "score": 0.366, "band": "Média", "components": {"severity": 0.0445, "no_regen": 0.4189, "connectivity": 0.6662, "risk": 0.428, "cost": 0.9644}, "delta_regen": 0.1157, "valid_fraction": 0.8017, "area_ha": 20.0, "stats_pre": {"n_cenas": 3, "frac_validos": 0.8006614820774113, "ndvi_min": -0.16790123456790124, "ndvi_max": 0.715249337509034, "ndvi_mean": 0.5082992297167501, "frac_critico": 0.02806829355501922, "frac_moderado": 0.3011531241619737}, "stats_pos": {"n_cenas": 2, "frac_validos": 0.5509073031196925, "ndvi_min": -0.15323011211959423, "ndvi_max": 0.6208812114755347, "ndvi_mean": 0.3092177857443499, "frac_critico": 0.17073388754804683, "frac_moderado": 0.33065164923572005}, "stats_regen": {"n_cenas": 3, "frac_validos": 0.8017341557164566, "ndvi_min": -0.18637992831541222, "ndvi_max": 0.7078724089786275, "ndvi_mean": 0.4249023650750269, "frac_critico": 0.0445159560203808, "frac_moderado": 0.5013855367837668}, "methods_version": "f1-2026-09"}, "geometry": {"type": "LineString", "coordinates": [[-51.916239500497795, -29.343043949348154], [-51.9157244, -29.3437473], [-51.9156414, -29.343880100000003], [-51.9137926, -29.346831799999997], [-51.91370067008888, -29.34696803474718]]}}, {"type": "Feature", "properties": {"id": "reach_2196fd5e30", "river": "rio_taquari", "order": 19, "score": 0.5993, "band": "Alta", "components": {"severity": 0.3248, "no_regen": 0.7142, "connectivity": 0.6004, "risk": 1.0, "cost": 0.7402}, "delta_regen": 0.0696, "valid_fraction": 0.726, "area_ha": 20.0, "stats_pre": {"n_cenas": 3, "frac_validos": 0.7794011544011544, "ndvi_min": -0.18311688311688315, "ndvi_max": 0.6845896578338049, "ndvi_mean": 0.46734596792921074, "frac_critico": 0.022997835497835496, "frac_moderado": 0.3838383838383838}, "stats_pos": {"n_cenas": 3, "frac_validos": 0.7786796536796536, "ndvi_min": -0.14651721377101679, "ndvi_max": 0.6324402606806662, "ndvi_mean": 0.22377245314655134, "frac_critico": 0.448502886002886, "frac_moderado": 0.30447330447330445}, "stats_regen": {"n_cenas": 3, "frac_validos": 0.726010101010101, "ndvi_min": -0.1560509554140127, "ndvi_max": 0.7063551871389098, "ndvi_mean": 0.2933964760642249, "frac_critico": 0.32476551226551226, "frac_moderado": 0.2398989898989899}, "methods_version": "f1-2026-09"}, "geometry": {"type": "LineString", "coordinates": [[-51.96896971025811, -29.606104395637733], [-51.9668161, -29.6068972], [-51.964027665880565, -29.60730100275619]]}}, {"type": "Feature", "properties": {"id": "reach_80f3ee0d69", "river": "rio_taquari", "order": 19, "score": 0.4637, "band": "Alta", "components": {"severity": 0.1287, "no_regen": 0.4642, "connectivity": 0.7066, "risk": 0.7763, "cost": 0.897}, "delta_regen": 0.1489, "valid_fraction": 0.8089, "area_ha": 20.0, "stats_pre": {"n_cenas": 3, "frac_validos": 0.8192544918208635, "ndvi_min": -0.16402116402116398, "ndvi_max": 0.7010722128923911, "ndvi_mean": 0.5033449032607117, "frac_critico": 0.03128631447215518, "frac_moderado": 0.23697148475909538}, "stats_pos": {"n_cenas": 2, "frac_validos": 0.5319567354965585, "ndvi_min": -0.17320316445042916, "ndvi_max": 0.6230111859931912, "ndvi_mean": 0.225540890760892, "frac_critico": 0.29006882989183874, "frac_moderado": 0.21158487530168946}, "stats_regen": {"n_cenas": 3, "frac_validos": 0.8088853133100921, "ndvi_min": -0.21513944223107567, "ndvi_max": 0.6794240242516104, "ndvi_mean": 0.3743936372764646, "frac_critico": 0.12872083668543846, "frac_moderado": 0.47304907481898634}, "methods_version": "f1-2026-09"}, "geometry": {"type": "LineString", "coordinates": [[-51.903618171508015, -29.41208233069679], [-51.9059979, -29.4142922], [-51.90732964391788, -29.41519562056439]]}}]}
