{"type": "FeatureCollection", "features": [{"type": "Feature", "properties": {"id": "reach_94780544cc", "river": "pardinho", "order": 0, "score": 0.2129, "band": "Média", "components": {"severity": 0.035, "no_regen": 0.19, "connectivity": 0.444, "risk": 0.105, "cost": 0.972}, "delta_regen": 0.014, "valid_fraction": 0.95, "area_ha": 20.0, "stats_pre": {"frac_critico": 0.005, "ndvi_mean": 0.605, "frac_validos": 0.97}, "stats_pos": {"frac_critico": 0.04, "ndvi_mean": 0.572, "frac_validos": 0.94}, "stats_regen": {"frac_critico": 0.035, "ndvi_mean": 0.586, "frac_validos": 0.95}, "methods_version": "f1-2026-09"}, "geometry": {"type": "LineString", "coordinates": [[-52.65, -29.42860573201542], [-52.646, -29.42760573201542]]}}, {"type": "Feature", "properties": {"id": "reach_26ce23c3d4", "river": "pardinho", "order": 1, "score": 0.1636, "band": "Baixa", "components": {"severity": 0.005, "no_regen": 0.11, "connectivity": 0.4225, "risk": 0.0, "cost": 0.996}, "delta_regen": 0.001, "valid_fraction": 0.95, "area_ha": 20.0, "stats_pre": {"frac_critico": 0.005, "ndvi_mean": 0.567, "frac_validos": 0.97}, "stats_pos": {"frac_critico": 0.005, "ndvi_mean": 0.555, "frac_validos": 0.94}, "stats_regen": {"frac_critico": 0.005, "ndvi_mean": 0.556, "frac_validos": 0.95}, "methods_version": "f1-2026-09"}, "geometry": {"type": "LineString", "coordinates": [[-52.646, -29.428233005125772], [-52.642, -29.42723300512577]]}}, {"type": "Feature", "properties": {"id": "reach_60a9e88748", "river": "pardinho", "order": 2, "score": 0.1413, "band": "Baixa", "components": {"severity": 0.005, "no_regen": 0.0, "connectivity": 0.4485, "risk": 0.0, "cost": 0.996}, "delta_regen": 0.02, "valid_fraction": 0.95, "area_ha": 20.0, "stats_pre": {"frac_critico": 0.005, "ndvi_mean": 0.555, "frac_validos": 0.97}, "stats_pos": {"frac_critico": 0.005, "ndvi_mean": 0.549, "frac_validos": 0.94}, "stats_regen": {"frac_critico": 0.005, "ndvi_mean": 0.569, "frac_validos": 0.95}, "methods_version": "f1-2026-09"}, "geometry": {"type": "LineString", "coordinates": [[-52.641999999999996, -29.432813620251963], [-52.638, -29.431813620251962]]}}, {"type": "Feature", "properties": {"id": "reach_05fd56ca50", "river": "pardinho", "order": 3, "score": 0.4035, "band": "Alta", "components": {"severity": 0.035, "no_regen": 0.9918, "connectivity": 0.3945, "risk": 0.105, "cost": 0.972}, "delta_regen": 0.001, "valid_fraction": 0.95, "area_ha": 20.0, "stats_pre": {"frac_critico": 0.005, "ndvi_mean": 0.668, "frac_validos": 0.97}, "stats_pos": {"frac_critico": 0.04, "ndvi_mean": 0.546, "frac_validos": 0.94}, "stats_regen": {"frac_critico": 0.035, "ndvi_mean": 0.547, "frac_validos": 0.95}, "methods_version": "f1-2026-09"}, "geometry": {"type": "LineString", "coordinates": [[-52.638, -29.42955058519397], [-52.634, -29.428550585193967]]}}, {"type": "Feature", "properties": {"id": "reach_e8bd0f2003", "river": "pardinho", "order": 4, "score": 0.1515, "band": "Baixa", "components": {"severity": 0.005, "no_regen": 0.0, "connectivity": 0.4995, "risk": 0.0, "cost": 0.996}, "delta_regen": 0.029, "valid_fraction": 0.95, "area_ha": 20.0, "stats_pre": {"frac_critico": 0.005, "ndvi_mean": 0.618, "frac_validos": 0.97}, "stats_pos": {"frac_critico": 0.005, "ndvi_mean": 0.613, "frac_validos": 0.94}, "stats_regen": {"frac_critico": 0.005, "ndvi_mean": 0.642, "frac_validos": 0.95}, "methods_version": "f1-2026-09"}, "geometry": {"type": "LineString", "coordinates": [[-52.634, -29.426941807481672], [-52.63, -29.42594180748167]]}}, {"type": "Feature", "properties": {"id": "reach_3ef708da77", "river": "pardinho", "order": 5, "score": 0.3749, "band": "Média", "components": {"severity": 0.035, "no_regen": 0.9055, "connectivity": 0.3595, "risk": 0.105, "cost": 0.972}, "delta_regen": 0.012, "valid_fraction": 0.95, "area_ha": 20.0, "stats_pre": {"frac_critico": 0.005, "ndvi_mean": 0.569, "frac_validos": 0.97}, "stats_pos": {"frac_critico": 0.04, "ndvi_mean": 0.442, "frac_validos": 0.94}, "stats_regen": {"frac_critico": 0.035, "ndvi_mean": 0.454, "frac_validos": 0.95}, "methods_version": "f1-2026-09"}, "geometry": {"type": "LineString", "coordinates": [[-52.629999999999995, -29.431634054548873], [-52.626, -29.43063405454887]]}}, {"type": "Feature", "properties": {"id": "reach_da3c0e7ac0", "river": "pardinho", "order": 6, "score": 0.1847, "band": "Baixa", "components": {"severity": 0.005, "no_regen": 0.18, "connectivity": 0.4405, "risk": 0.0, "cost": 0.996}, "delta_regen": 0.011, "valid_fraction": 0.95, "area_ha": 20.0, "stats_pre": {"frac_critico": 0.005, "ndvi_mean": 0.657, "frac_validos": 0.97}, "stats_pos": {"frac_critico": 0.005, "ndvi_mean": 0.628, "frac_validos": 0.94}, "stats_regen": {"frac_critico": 0.005, "ndvi_mean": 0.639, "frac_validos": 0.95}, "methods_version": "f1-2026-09"}, "geometry": {"type": "LineString", "coordinates": [[-52.626, -29.426928717267256], [-52.622, -29.425928717267254]]}}, {"type": "Feature", "properties": {"id": "reach_410a43a482", "river": "pardinho", "order": 7, "score": 0.1462, "band": "Baixa", "components": {"severity": 0.005, "no_regen": 0.09, "connectivity": 0.361, "risk": 0.0, "cost": 0.996}, "delta_regen": 0.017, "valid_fraction": 0.95, "area_ha": 20.0, "stats_pre": {"frac_critico": 0.005, "ndvi_mean": 0.674, "frac_validos": 0.97}, "stats_pos": {"frac_critico": 0.005, "ndvi_mean": 0.648, "frac_validos": 0.94}, "stats_regen": {"frac_critico": 0.005, "ndvi_mean": 0.665, "frac_validos": 0.95}, "methods_version": "f1-2026-09"}, "geometry": {"type": "LineString", "coordinates": [[-52.622, -29.42947959368727], [-52.618, -29.428479593687268]]}}]}
